[{"OBJECT_NAME":"YUNHAI-2 02E","OBJECT_ID":"2024-052E","EPOCH":"2026-03-09T23:04:08.218272","MEAN_MOTION":14.27923834,"ECCENTRICITY":0.00117453,"INCLINATION":50.0117,"RA_OF_ASC_NODE":23.2487,"ARG_OF_PERICENTER":69.3739,"MEAN_ANOMALY":290.8434,"EPHEMERIS_TYPE":0,"CLASSIFICATION_TYPE":"U","NORAD_CAT_ID":59284,"ELEMENT_SET_NO":999,"REV_AT_EPOCH":9275,"BSTAR":0.0001398659,"MEAN_MOTION_DOT":1.88e-6,"MEAN_MOTION_DDOT":0},{"OBJECT_NAME":"FENGYUN 1C DEB","OBJECT_ID":"1999-025CGG","EPOCH":"2026-02-16T07:03:27.255744","MEAN_MOTION":14.14461972,"ECCENTRICITY":0.0195618,"INCLINATION":99.4995,"RA_OF_ASC_NODE":227.2988,"ARG_OF_PERICENTER":91.9454,"MEAN_ANOMALY":270.4131,"EPHEMERIS_TYPE":0,"CLASSIFICATION_TYPE":"U","NORAD_CAT_ID":31781,"ELEMENT_SET_NO":999,"REV_AT_EPOCH":69274,"BSTAR":0.0032549,"MEAN_MOTION_DOT":7.456e-5,"MEAN_MOTION_DDOT":0}]
